CCSDS_OMM_VERS = 2.0
CREATION_DATE  = 
ORIGINATOR     = 

OBJECT_NAME    = STARLINK-36432
OBJECT_ID      = 2026-003J
CENTER_NAME    = EARTH
REF_FRAME      = TEME
TIME_SYSTEM    = UTC
MEAN_ELEMENT_THEORY = SGP/SGP4

EPOCH          = 2026-01-21T12:00:01.999296
MEAN_MOTION    = 15.81011728
ECCENTRICITY   = .0001572
INCLINATION    = 42.9982
RA_OF_ASC_NODE = 139.3145
ARG_OF_PERICENTER = 275.4745
MEAN_ANOMALY   = 356.4343

EPHEMERIS_TYPE = 0
CLASSIFICATION_TYPE = U
NORAD_CAT_ID   = 67342
ELEMENT_SET_NO = 999
REV_AT_EPOCH   = 307
BSTAR          = -.879E-2
MEAN_MOTION_DOT = -.1550757E-1
MEAN_MOTION_DDOT = 0

CCSDS_OMM_VERS = 2.0
CREATION_DATE  = 
ORIGINATOR     = 

OBJECT_NAME    = STARLINK-36458
OBJECT_ID      = 2026-003K
CENTER_NAME    = EARTH
REF_FRAME      = TEME
TIME_SYSTEM    = UTC
MEAN_ELEMENT_THEORY = SGP/SGP4

EPOCH          = 2026-01-21T12:00:01.999296
MEAN_MOTION    = 15.81042539
ECCENTRICITY   = .0001601
INCLINATION    = 42.9981
RA_OF_ASC_NODE = 139.3091
ARG_OF_PERICENTER = 268.7621
MEAN_ANOMALY   = 5.1914

EPHEMERIS_TYPE = 0
CLASSIFICATION_TYPE = U
NORAD_CAT_ID   = 67343
ELEMENT_SET_NO = 999
REV_AT_EPOCH   = 308
BSTAR          = -.92939E-2
MEAN_MOTION_DOT = -.1630045E-1
MEAN_MOTION_DDOT = 0

CCSDS_OMM_VERS = 2.0
CREATION_DATE  = 
ORIGINATOR     = 

OBJECT_NAME    = STARLINK-36422
OBJECT_ID      = 2026-003L
CENTER_NAME    = EARTH
REF_FRAME      = TEME
TIME_SYSTEM    = UTC
MEAN_ELEMENT_THEORY = SGP/SGP4

EPOCH          = 2026-01-21T12:00:01.999296
MEAN_MOTION    = 15.80953198
ECCENTRICITY   = .0001606
INCLINATION    = 42.9979
RA_OF_ASC_NODE = 139.3028
ARG_OF_PERICENTER = 270.1930
MEAN_ANOMALY   = 6.2063

EPHEMERIS_TYPE = 0
CLASSIFICATION_TYPE = U
NORAD_CAT_ID   = 67344
ELEMENT_SET_NO = 999
REV_AT_EPOCH   = 307
BSTAR          = -.88586E-2
MEAN_MOTION_DOT = -.1557618E-1
MEAN_MOTION_DDOT = 0

CCSDS_OMM_VERS = 2.0
CREATION_DATE  = 
ORIGINATOR     = 

OBJECT_NAME    = STARLINK-35676
OBJECT_ID      = 2026-003M
CENTER_NAME    = EARTH
REF_FRAME      = TEME
TIME_SYSTEM    = UTC
MEAN_ELEMENT_THEORY = SGP/SGP4

EPOCH          = 2026-01-21T12:00:01.999296
MEAN_MOTION    = 15.80917331
ECCENTRICITY   = .0001411
INCLINATION    = 42.9981
RA_OF_ASC_NODE = 139.2969
ARG_OF_PERICENTER = 277.8850
MEAN_ANOMALY   = 0.8829

EPHEMERIS_TYPE = 0
CLASSIFICATION_TYPE = U
NORAD_CAT_ID   = 67345
ELEMENT_SET_NO = 999
REV_AT_EPOCH   = 307
BSTAR          = -.90218E-2
MEAN_MOTION_DOT = -.1580188E-1
MEAN_MOTION_DDOT = 0

CCSDS_OMM_VERS = 2.0
CREATION_DATE  = 
ORIGINATOR     = 

OBJECT_NAME    = STARLINK-36472
OBJECT_ID      = 2026-003N
CENTER_NAME    = EARTH
REF_FRAME      = TEME
TIME_SYSTEM    = UTC
MEAN_ELEMENT_THEORY = SGP/SGP4

EPOCH          = 2026-01-21T12:00:01.999296
MEAN_MOTION    = 15.80912819
ECCENTRICITY   = .0001577
INCLINATION    = 42.9983
RA_OF_ASC_NODE = 139.2914
ARG_OF_PERICENTER = 274.5453
MEAN_ANOMALY   = 6.3360

EPHEMERIS_TYPE = 0
CLASSIFICATION_TYPE = U
NORAD_CAT_ID   = 67346
ELEMENT_SET_NO = 999
REV_AT_EPOCH   = 307
BSTAR          = -.91591E-2
MEAN_MOTION_DOT = -.1600961E-1
MEAN_MOTION_DDOT = 0

CCSDS_OMM_VERS = 2.0
CREATION_DATE  = 
ORIGINATOR     = 

OBJECT_NAME    = STARLINK-36420
OBJECT_ID      = 2026-003P
CENTER_NAME    = EARTH
REF_FRAME      = TEME
TIME_SYSTEM    = UTC
MEAN_ELEMENT_THEORY = SGP/SGP4

EPOCH          = 2026-01-21T12:00:01.999296
MEAN_MOTION    = 15.80865853
ECCENTRICITY   = .0001569
INCLINATION    = 42.9984
RA_OF_ASC_NODE = 139.2801
ARG_OF_PERICENTER = 277.5623
MEAN_ANOMALY   = 7.8628

EPHEMERIS_TYPE = 0
CLASSIFICATION_TYPE = U
NORAD_CAT_ID   = 67347
ELEMENT_SET_NO = 999
REV_AT_EPOCH   = 308
BSTAR          = -.9615E-2
MEAN_MOTION_DOT = -.1666646E-1
MEAN_MOTION_DDOT = 0

CCSDS_OMM_VERS = 2.0
CREATION_DATE  = 
ORIGINATOR     = 

OBJECT_NAME    = STARLINK-36467
OBJECT_ID      = 2026-003Q
CENTER_NAME    = EARTH
REF_FRAME      = TEME
TIME_SYSTEM    = UTC
MEAN_ELEMENT_THEORY = SGP/SGP4

EPOCH          = 2026-01-21T12:00:01.999296
MEAN_MOTION    = 15.80876921
ECCENTRICITY   = .0001562
INCLINATION    = 42.9984
RA_OF_ASC_NODE = 139.2859
ARG_OF_PERICENTER = 276.9964
MEAN_ANOMALY   = 6.3015

EPHEMERIS_TYPE = 0
CLASSIFICATION_TYPE = U
NORAD_CAT_ID   = 67348
ELEMENT_SET_NO = 999
REV_AT_EPOCH   = 308
BSTAR          = -.9456E-2
MEAN_MOTION_DOT = -.1643521E-1
MEAN_MOTION_DDOT = 0

CCSDS_OMM_VERS = 2.0
CREATION_DATE  = 
ORIGINATOR     = 

OBJECT_NAME    = STARLINK-36457
OBJECT_ID      = 2026-003R
CENTER_NAME    = EARTH
REF_FRAME      = TEME
TIME_SYSTEM    = UTC
MEAN_ELEMENT_THEORY = SGP/SGP4

EPOCH          = 2026-01-21T12:00:01.999296
MEAN_MOTION    = 15.80802698
ECCENTRICITY   = .0001487
INCLINATION    = 42.9983
RA_OF_ASC_NODE = 139.2740
ARG_OF_PERICENTER = 275.1670
MEAN_ANOMALY   = 12.7290

EPHEMERIS_TYPE = 0
CLASSIFICATION_TYPE = U
NORAD_CAT_ID   = 67349
ELEMENT_SET_NO = 999
REV_AT_EPOCH   = 308
BSTAR          = -.98193E-2
MEAN_MOTION_DOT = -.1728173E-1
MEAN_MOTION_DDOT = 0

CCSDS_OMM_VERS = 2.0
CREATION_DATE  = 
ORIGINATOR     = 

OBJECT_NAME    = STARLINK-36475
OBJECT_ID      = 2026-003S
CENTER_NAME    = EARTH
REF_FRAME      = TEME
TIME_SYSTEM    = UTC
MEAN_ELEMENT_THEORY = SGP/SGP4

EPOCH          = 2026-01-21T12:00:01.999296
MEAN_MOTION    = 15.80742044
ECCENTRICITY   = .0001457
INCLINATION    = 42.9983
RA_OF_ASC_NODE = 139.2676
ARG_OF_PERICENTER = 277.5264
MEAN_ANOMALY   = 12.7699

EPHEMERIS_TYPE = 0
CLASSIFICATION_TYPE = U
NORAD_CAT_ID   = 67350
ELEMENT_SET_NO = 999
REV_AT_EPOCH   = 307
BSTAR          = -.99701E-2
MEAN_MOTION_DOT = -.1747176E-1
MEAN_MOTION_DDOT = 0

CCSDS_OMM_VERS = 2.0
CREATION_DATE  = 
ORIGINATOR     = 

OBJECT_NAME    = STARLINK-36478
OBJECT_ID      = 2026-003T
CENTER_NAME    = EARTH
REF_FRAME      = TEME
TIME_SYSTEM    = UTC
MEAN_ELEMENT_THEORY = SGP/SGP4

EPOCH          = 2026-01-21T12:00:01.999296
MEAN_MOTION    = 15.80735339
ECCENTRICITY   = .0001376
INCLINATION    = 42.9984
RA_OF_ASC_NODE = 139.2625
ARG_OF_PERICENTER = 271.8604
MEAN_ANOMALY   = 20.4743

EPHEMERIS_TYPE = 0
CLASSIFICATION_TYPE = U
NORAD_CAT_ID   = 67351
ELEMENT_SET_NO = 999
REV_AT_EPOCH   = 307
BSTAR          = -.10048E-1
MEAN_MOTION_DOT = -.1758704E-1
MEAN_MOTION_DDOT = 0

CCSDS_OMM_VERS = 2.0
CREATION_DATE  = 
ORIGINATOR     = 

OBJECT_NAME    = STARLINK-36479
OBJECT_ID      = 2026-003U
CENTER_NAME    = EARTH
REF_FRAME      = TEME
TIME_SYSTEM    = UTC
MEAN_ELEMENT_THEORY = SGP/SGP4

EPOCH          = 2026-01-21T12:00:01.999296
MEAN_MOTION    = 15.80712738
ECCENTRICITY   = .000147
INCLINATION    = 42.9985
RA_OF_ASC_NODE = 139.2573
ARG_OF_PERICENTER = 271.0721
MEAN_ANOMALY   = 23.3539

EPHEMERIS_TYPE = 0
CLASSIFICATION_TYPE = U
NORAD_CAT_ID   = 67352
ELEMENT_SET_NO = 999
REV_AT_EPOCH   = 308
BSTAR          = -.10082E-1
MEAN_MOTION_DOT = -.1762256E-1
MEAN_MOTION_DDOT = 0

CCSDS_OMM_VERS = 2.0
CREATION_DATE  = 
ORIGINATOR     = 

OBJECT_NAME    = STARLINK-36474
OBJECT_ID      = 2026-003V
CENTER_NAME    = EARTH
REF_FRAME      = TEME
TIME_SYSTEM    = UTC
MEAN_ELEMENT_THEORY = SGP/SGP4

EPOCH          = 2026-01-21T12:00:01.999296
MEAN_MOTION    = 15.80660834
ECCENTRICITY   = .0001402
INCLINATION    = 42.9982
RA_OF_ASC_NODE = 139.2519
ARG_OF_PERICENTER = 272.8403
MEAN_ANOMALY   = 23.8866

EPHEMERIS_TYPE = 0
CLASSIFICATION_TYPE = U
NORAD_CAT_ID   = 67353
ELEMENT_SET_NO = 999
REV_AT_EPOCH   = 308
BSTAR          = -.1019E-1
MEAN_MOTION_DOT = -.177505E-1
MEAN_MOTION_DDOT = 0

