STARLINK-36432          
1 67342U 26003J   26021.50002314 -.01550757  00000+0 -87900-2 0  9996
2 67342  42.9982 139.3145 0001572 275.4745 356.4343 15.81011728  3075
STARLINK-36458          
1 67343U 26003K   26021.50002314 -.01630045  00000+0 -92939-2 0  9994
2 67343  42.9981 139.3091 0001601 268.7621   5.1914 15.81042539  3083
STARLINK-36422          
1 67344U 26003L   26021.50002314 -.01557618  00000+0 -88586-2 0  9992
2 67344  42.9979 139.3028 0001606 270.1930   6.2063 15.80953198  3073
STARLINK-35676          
1 67345U 26003M   26021.50002314 -.01580188  00000+0 -90218-2 0  9996
2 67345  42.9981 139.2969 0001411 277.8850   0.8829 15.80917331  3078
STARLINK-36472          
1 67346U 26003N   26021.50002314 -.01600961  00000+0 -91591-2 0  9994
2 67346  42.9983 139.2914 0001577 274.5453   6.3360 15.80912819  3074
STARLINK-36420          
1 67347U 26003P   26021.50002314 -.01666646  00000+0 -96150-2 0  9993
2 67347  42.9984 139.2801 0001569 277.5623   7.8628 15.80865853  3083
STARLINK-36467          
1 67348U 26003Q   26021.50002314 -.01643521  00000+0 -94560-2 0  9994
2 67348  42.9984 139.2859 0001562 276.9964   6.3015 15.80876921  3083
STARLINK-36457          
1 67349U 26003R   26021.50002314 -.01728173  00000+0 -98193-2 0  9998
2 67349  42.9983 139.2740 0001487 275.1670  12.7290 15.80802698  3089
STARLINK-36475          
1 67350U 26003S   26021.50002314 -.01747176  00000+0 -99701-2 0  9990
2 67350  42.9983 139.2676 0001457 277.5264  12.7699 15.80742044  3071
STARLINK-36478          
1 67351U 26003T   26021.50002314 -.01758704  00000+0 -10048-1 0  9996
2 67351  42.9984 139.2625 0001376 271.8604  20.4743 15.80735339  3077
STARLINK-36479          
1 67352U 26003U   26021.50002314 -.01762256  00000+0 -10082-1 0  9992
2 67352  42.9985 139.2573 0001470 271.0721  23.3539 15.80712738  3082
STARLINK-36474          
1 67353U 26003V   26021.50002314 -.01775050  00000+0 -10190-1 0  9999
2 67353  42.9982 139.2519 0001402 272.8403  23.8866 15.80660834  3088
